ONEWEB-0721             
1 56725U 23068R   26157.54760767  .00000103  00000+0  21296-3 0  9993
2 56725  86.6766  88.9117 0001946  78.9005 281.2346 13.22468686156531
ONEWEB-0015             
1 61594U 24188A   26157.85680840  .00000276  00000+0  74395-3 0  9993
2 61594  87.8897  23.1493 0002300  78.8172 281.3214 13.11415644 83107
ONEWEB-0687             
1 61595U 24188B   26158.28313564 -.00000210  00000+0 -57517-3 0  9995
2 61595  87.9136   7.8471 0002325  90.8568 269.2830 13.17648775 84592
ONEWEB-0688             
1 61596U 24188C   26157.85620921  .00000003  00000+0 -26532-4 0  9999
2 61596  87.9136   7.9324 0002943  74.0211 286.1244 13.17647387 84535
ONEWEB-0689             
1 61597U 24188D   26157.66181854 -.00000409  00000+0 -11894-2 0  9990
2 61597  87.8914  23.1456 0001951  93.2375 266.8977 13.11418973 83074
ONEWEB-0690             
1 61598U 24188E   26157.67199656 -.00000025  00000+0 -10570-3 0  9996
2 61598  87.8909  23.1560 0001532  61.6601 298.4681 13.11420665 83255
ONEWEB-0691             
1 61599U 24188F   26157.59061761 -.00000360  00000+0 -10507-2 0  9994
2 61599  87.8923  23.0826 0002131  75.5921 284.5444 13.11417842 83099
ONEWEB-0692             
1 61600U 24188G   26157.99244751 -.00011163  00000+0 -31544-1 0  9999
2 61600  87.8892  23.1141 0001673 110.7107 249.4200 13.11478562 83137
ONEWEB-0693             
1 61601U 24188H   26157.33645798  .00000037  00000+0  61299-4 0  9993
2 61601  87.9129   8.0549 0001389  66.5698 293.5579 13.17649651 84453
ONEWEB-0695             
1 61602U 24188J   26157.58721606 -.00000403  00000+0 -11719-2 0  9993
2 61602  87.8896  23.1874 0001767 101.5584 258.5743 13.11417569 83073
ONEWEB-0697             
1 61603U 24188K   26157.61944487  .00000433  00000+0  11850-2 0  9999
2 61603  87.8899  23.1705 0001279 109.2406 250.8861 13.11415875 83069
ONEWEB-0698             
1 61604U 24188L   26157.67368700 -.00000045  00000+0 -16219-3 0  9990
2 61604  87.8897  23.1740 0000582  80.6795 279.4399 13.11419662 83090
ONEWEB-0699             
1 61605U 24188M   26157.67817510 -.00000057  00000+0 -19981-3 0  9991
2 61605  87.8835  38.3587 0001287  97.3606 262.7667 13.10369255 81934
ONEWEB-0700             
1 61606U 24188N   26157.67983245 -.00000220  00000+0 -66573-3 0  9992
2 61606  87.8858  38.2660 0001646 105.4094 254.7215 13.10369619 81925
ONEWEB-0701             
1 61607U 24188P   26157.62006352 -.00000606  00000+0 -17718-2 0  9997
2 61607  87.8844  38.3692 0001239 105.1208 255.0057 13.10372395 81922
ONEWEB-0702             
1 61608U 24188Q   26157.87206718 -.00000353  00000+0 -10329-2 0  9993
2 61608  87.8913  23.0382 0001576 119.6518 240.4767 13.11416049 83132
ONEWEB-0704             
1 61609U 24188R   26157.68481070 -.00000418  00000+0 -12326-2 0  9990
2 61609  87.8852  38.3454 0001782 118.5556 241.5751 13.10370179 81914
ONEWEB-0705             
1 61610U 24188S   26157.68979820 -.00001720  00000+0 -49641-2 0  9994
2 61610  87.8848  38.3504 0002436 106.3395 253.8000 13.10359183 74085
ONEWEB-0706             
1 61611U 24188T   26157.67485847  .00000080  00000+0  19161-3 0  9996
2 61611  87.8843  38.3584 0001810 100.3492 259.7840 13.10370067 82008
ONEWEB-0707             
1 61612U 24188U   26157.68149174 -.00000421  00000+0 -12422-2 0  9991
2 61612  87.8846  38.3506 0001652 101.5528 258.5785 13.10369178 81941
ONEWEB-0708             
1 61613U 24188V   26157.62338473 -.00000634  00000+0 -18536-2 0  9996
2 61613  87.8849  38.3812 0002287  88.6627 271.4762 13.10373335 81911
