OBJECT_NAME,OBJECT_ID,EPOCH,MEAN_MOTION,ECCENTRICITY,INCLINATION,RA_OF_ASC_NODE,ARG_OF_PERICENTER,MEAN_ANOMALY,EPHEMERIS_TYPE,CLASSIFICATION_TYPE,NORAD_CAT_ID,ELEMENT_SET_NO,REV_AT_EPOCH,BSTAR,MEAN_MOTION_DOT,MEAN_MOTION_DDOT
ONEWEB-0721,2023-068R,2026-06-06T13:08:33.302688,13.22468686,.0001946,86.6766,88.9117,78.9005,281.2346,0,U,56725,999,15653,.21296E-3,.103E-5,0
ONEWEB-0015,2024-188A,2026-06-06T20:33:48.245760,13.11415644,.00023009,87.8897,23.1493,78.8172,281.3214,0,U,61594,999,8310,.74394605E-3,.276E-5,0
ONEWEB-0687,2024-188B,2026-06-07T06:47:42.919296,13.17648775,.00023251,87.9136,7.8471,90.8568,269.2830,0,U,61595,999,8459,-.57516524E-3,-.21E-5,0
ONEWEB-0688,2024-188C,2026-06-06T20:32:56.475744,13.17647387,.00029431,87.9136,7.9324,74.0211,286.1244,0,U,61596,999,8453,-.26532457E-4,.3E-7,0
ONEWEB-0689,2024-188D,2026-06-06T15:53:01.121856,13.11418973,.0001951,87.8914,23.1456,93.2375,266.8977,0,U,61597,999,8307,-.11894228E-2,-.409E-5,0
ONEWEB-0690,2024-188E,2026-06-06T16:07:40.502784,13.11420665,.00015326,87.8909,23.1560,61.6601,298.4681,0,U,61598,999,8325,-.10570345E-3,-.25E-6,0
ONEWEB-0691,2024-188F,2026-06-06T14:10:29.361504,13.11417842,.00021313,87.8923,23.0826,75.5921,284.5444,0,U,61599,999,8309,-.1050702E-2,-.36E-5,0
ONEWEB-0692,2024-188G,2026-06-06T23:49:07.464864,13.11478562,.00016738,87.8892,23.1141,110.7107,249.4200,0,U,61600,999,8313,-.31543791E-1,-.11163E-3,0
ONEWEB-0693,2024-188H,2026-06-06T08:04:29.969472,13.17649651,.00013896,87.9129,8.0549,66.5698,293.5579,0,U,61601,999,8445,.61298914E-4,.37E-6,0
ONEWEB-0695,2024-188J,2026-06-06T14:05:35.467584,13.11417569,.00017674,87.8896,23.1874,101.5584,258.5743,0,U,61602,999,8307,-.11719251E-2,-.403E-5,0
ONEWEB-0697,2024-188K,2026-06-06T14:52:00.036768,13.11415875,.00012792,87.8899,23.1705,109.2406,250.8861,0,U,61603,999,8306,.11850442E-2,.433E-5,0
ONEWEB-0698,2024-188L,2026-06-06T16:10:06.556800,13.11419662,.00005825,87.8897,23.1740,80.6795,279.4399,0,U,61604,999,8309,-.16218624E-3,-.45E-6,0
ONEWEB-0699,2024-188M,2026-06-06T16:16:34.328640,13.10369255,.00012873,87.8835,38.3587,97.3606,262.7667,0,U,61605,999,8193,-.19981378E-3,-.57E-6,0
ONEWEB-0700,2024-188N,2026-06-06T16:18:57.523680,13.10369619,.00016466,87.8858,38.2660,105.4094,254.7215,0,U,61606,999,8192,-.6657269E-3,-.22E-5,0
ONEWEB-0701,2024-188P,2026-06-06T14:52:53.488128,13.10372395,.00012398,87.8844,38.3692,105.1208,255.0057,0,U,61607,999,8192,-.17717923E-2,-.606E-5,0
ONEWEB-0702,2024-188Q,2026-06-06T20:55:46.604352,13.11416049,.00015763,87.8913,23.0382,119.6518,240.4767,0,U,61608,999,8313,-.10329345E-2,-.353E-5,0
ONEWEB-0704,2024-188R,2026-06-06T16:26:07.644480,13.10370179,.00017828,87.8852,38.3454,118.5556,241.5751,0,U,61609,999,8191,-.12326054E-2,-.418E-5,0
ONEWEB-0705,2024-188S,2026-06-06T16:33:18.564480,13.10359183,.00024366,87.8848,38.3504,106.3395,253.8000,0,U,61610,999,7408,-.49641017E-2,-.172E-4,0
ONEWEB-0706,2024-188T,2026-06-06T16:11:47.771808,13.10370067,.00018103,87.8843,38.3584,100.3492,259.7840,0,U,61611,999,8200,.19160842E-3,.8E-6,0
ONEWEB-0707,2024-188U,2026-06-06T16:21:20.886336,13.10369178,.00016524,87.8846,38.3506,101.5528,258.5785,0,U,61612,999,8194,-.12421809E-2,-.421E-5,0
ONEWEB-0708,2024-188V,2026-06-06T14:57:40.440672,13.10373335,.0002287,87.8849,38.3812,88.6627,271.4762,0,U,61613,999,8191,-.1853633E-2,-.634E-5,0
